{
  "norad_id": 45450,
  "name": "ONEWEB-0094",
  "history": [
    {
      "epoch": "2026-03-28T20:41:58.278912Z",
      "apogee_km": 1195.2236344155526,
      "perigee_km": 1192.2051915682787,
      "latitude_deg": 3.8332604395138875e-05,
      "longitude_deg": -114.97736248400874,
      "height_km": 1196.4530294745387,
      "semi_major_axis_km": 7571.851412991916,
      "eccentricity": 0.00019932,
      "inclination_deg": 87.9189,
      "raan_deg": 21.7923,
      "arg_perigee_deg": 84.0444,
      "mean_anomaly_deg": 276.0915,
      "mean_motion_rev_day": 13.17648699
    },
    {
      "epoch": "2026-03-29T02:10:00.915168Z",
      "apogee_km": 1195.2204005934127,
      "perigee_km": 1192.2083181226608,
      "latitude_deg": -2.5548869700345778e-05,
      "longitude_deg": 162.74181270202473,
      "height_km": 1196.4606240669946,
      "semi_major_axis_km": 7571.8513593580365,
      "eccentricity": 0.0001989,
      "inclination_deg": 87.9189,
      "raan_deg": 21.747,
      "arg_perigee_deg": 84.3236,
      "mean_anomaly_deg": 275.8122,
      "mean_motion_rev_day": 13.17648713
    },
    {
      "epoch": "2026-03-30T01:51:32.457600Z",
      "apogee_km": 1195.2210121719081,
      "perigee_km": 1192.2074153888234,
      "latitude_deg": -2.5689824524287948e-05,
      "longitude_deg": 166.1916866761968,
      "height_km": 1196.4531949973411,
      "semi_major_axis_km": 7571.8512137803655,
      "eccentricity": 0.000199,
      "inclination_deg": 87.919,
      "raan_deg": 21.5513,
      "arg_perigee_deg": 84.0481,
      "mean_anomaly_deg": 276.0877,
      "mean_motion_rev_day": 13.17648751
    },
    {
      "epoch": "2026-03-30T05:30:14.232960Z",
      "apogee_km": 1195.221580684526,
      "perigee_km": 1192.20631819944,
      "latitude_deg": -3.573360430348338e-05,
      "longitude_deg": 111.33773022052549,
      "height_km": 1196.4512589233013,
      "semi_major_axis_km": 7571.850949441982,
      "eccentricity": 0.00019911,
      "inclination_deg": 87.9191,
      "raan_deg": 21.5211,
      "arg_perigee_deg": 83.9875,
      "mean_anomaly_deg": 276.1483,
      "mean_motion_rev_day": 13.1764882
    },
    {
      "epoch": "2026-03-30T12:47:37.789728Z",
      "apogee_km": 1195.2231773547219,
      "perigee_km": 1192.2051889101494,
      "latitude_deg": -5.498599958399459e-05,
      "longitude_deg": 1.6298920702890431,
      "height_km": 1196.4505062137064,
      "semi_major_axis_km": 7571.851183132435,
      "eccentricity": 0.00019929,
      "inclination_deg": 87.9191,
      "raan_deg": 21.4608,
      "arg_perigee_deg": 83.9553,
      "mean_anomaly_deg": 276.1805,
      "mean_motion_rev_day": 13.17648759
    },
    {
      "epoch": "2026-03-30T20:05:01.350816Z",
      "apogee_km": 1195.2220065056563,
      "perigee_km": 1192.2049269686804,
      "latitude_deg": -3.789440409191198e-05,
      "longitude_deg": -108.07786281530663,
      "height_km": 1196.4437068808347,
      "semi_major_axis_km": 7571.850466737168,
      "eccentricity": 0.00019923,
      "inclination_deg": 87.9192,
      "raan_deg": 21.4006,
      "arg_perigee_deg": 83.7211,
      "mean_anomaly_deg": 276.4147,
      "mean_motion_rev_day": 13.17648946
    },
    {
      "epoch": "2026-03-31T12:29:09.281184Z",
      "apogee_km": 1195.2243208717327,
      "perigee_km": 1192.2002756989823,
      "latitude_deg": -7.788781748525207e-05,
      "longitude_deg": 5.079978921777065,
      "height_km": 1196.4348361273965,
      "semi_major_axis_km": 7571.849298285357,
      "eccentricity": 0.00019969,
      "inclination_deg": 87.9194,
      "raan_deg": 21.2651,
      "arg_perigee_deg": 83.4419,
      "mean_anomaly_deg": 276.6939,
      "mean_motion_rev_day": 13.17649251
    },
    {
      "epoch": "2026-04-01T12:10:40.808064Z",
      "apogee_km": 1195.2431767746984,
      "perigee_km": 1192.181120978893,
      "latitude_deg": 3.995537176651499e-05,
      "longitude_deg": 8.530122885309078,
      "height_km": 1196.4308175427348,
      "semi_major_axis_km": 7571.849148876796,
      "eccentricity": 0.0002022,
      "inclination_deg": 87.9194,
      "raan_deg": 21.0696,
      "arg_perigee_deg": 83.3803,
      "mean_anomaly_deg": 276.7559,
      "mean_motion_rev_day": 13.1764929
    },
    {
      "epoch": "2026-04-02T17:20:15.148320Z",
      "apogee_km": 1195.2918191748468,
      "perigee_km": 1192.1414737467003,
      "latitude_deg": -1.6417013274292946e-05,
      "longitude_deg": -70.30110215293378,
      "height_km": 1196.426061900642,
      "semi_major_axis_km": 7571.853646460773,
      "eccentricity": 0.00020803,
      "inclination_deg": 87.9193,
      "raan_deg": 20.829,
      "arg_perigee_deg": 83.2314,
      "mean_anomaly_deg": 276.9054,
      "mean_motion_rev_day": 13.17648116
    },
    {
      "epoch": "2026-04-03T20:40:28.150752Z",
      "apogee_km": 1195.2942716057905,
      "perigee_km": 1192.1186404603304,
      "latitude_deg": -7.845682367292105e-06,
      "longitude_deg": -121.70366695708229,
      "height_km": 1196.4150808853387,
      "semi_major_axis_km": 7571.84345603306,
      "eccentricity": 0.0002097,
      "inclination_deg": 87.9194,
      "raan_deg": 20.6033,
      "arg_perigee_deg": 83.2578,
      "mean_anomaly_deg": 276.8792,
      "mean_motion_rev_day": 13.17650776
    },
    {
      "epoch": "2026-04-04T05:47:12.765408Z",
      "apogee_km": 1195.2807859141476,
      "perigee_km": 1192.15043060884,
      "latitude_deg": -3.80115673265451e-05,
      "longitude_deg": 101.16090463188715,
      "height_km": 1196.4112636061127,
      "semi_major_axis_km": 7571.8526082614935,
      "eccentricity": 0.00020671,
      "inclination_deg": 87.9194,
      "raan_deg": 20.528,
      "arg_perigee_deg": 82.6793,
      "mean_anomaly_deg": 277.4573,
      "mean_motion_rev_day": 13.17648387
    },
    {
      "epoch": "2026-04-05T12:46:07.686624Z",
      "apogee_km": 1195.2202606398923,
      "perigee_km": 1192.201516323713,
      "latitude_deg": 6.918423164447976e-05,
      "longitude_deg": -5.096913915444165,
      "height_km": 1196.4300729509541,
      "semi_major_axis_km": 7571.847888481802,
      "eccentricity": 0.00019934,
      "inclination_deg": 87.9197,
      "raan_deg": 20.2714,
      "arg_perigee_deg": 83.3027,
      "mean_anomaly_deg": 276.8332,
      "mean_motion_rev_day": 13.17649619
    },
    {
      "epoch": "2026-04-05T18:14:10.360896Z",
      "apogee_km": 1195.22258717539,
      "perigee_km": 1192.2014194230742,
      "latitude_deg": -4.411465182566096e-05,
      "longitude_deg": -87.37769974846059,
      "height_km": 1196.4280449549963,
      "semi_major_axis_km": 7571.849003299232,
      "eccentricity": 0.0001995,
      "inclination_deg": 87.9197,
      "raan_deg": 20.2263,
      "arg_perigee_deg": 83.1875,
      "mean_anomaly_deg": 276.9483,
      "mean_motion_rev_day": 13.17649328
    }
  ]
}